<?xml version="1.0" encoding="UTF-8"?>
<gpx xmlns="http://www.topografix.com/GPX/1/1" xmlns:gpxtpx="http://www.garmin.com/xmlschemas/TrackPointExtension/v1" version="1.1" creator="S.V.Mermug">
  <metadata>
    <name>S.V.Mermug — 2026-08-19</name>
    <time>2026-08-19T20:38:11Z</time>
  </metadata>
  <trk>
    <name>S.V.Mermug — 2026-08-19</name>
    <trkseg>
      <trkpt lat="37.834747" lon="-122.422390">
        <time>2026-08-19T20:38:11Z</time>
        <extensions>
          <gpxtpx:TrackPointExtension>
            <gpxtpx:speed>3.720</gpxtpx:speed>
            <gpxtpx:course>301.8</gpxtpx:course>
          </gpxtpx:TrackPointExtension>
        </extensions>
      </trkpt>
      <trkpt lat="37.837169" lon="-122.426373">
        <time>2026-08-19T20:40:14Z</time>
        <extensions>
          <gpxtpx:TrackPointExtension>
            <gpxtpx:speed>3.430</gpxtpx:speed>
            <gpxtpx:course>300.8</gpxtpx:course>
          </gpxtpx:TrackPointExtension>
        </extensions>
      </trkpt>
    </trkseg>
  </trk>
</gpx>
