<?xml version="1.0" encoding="UTF-8"?>
<gpx xmlns="http://www.topografix.com/GPX/1/1" xmlns:gpxtpx="http://www.garmin.com/xmlschemas/TrackPointExtension/v1" xmlns:sk="https://signalk.org/specification/" version="1.1" creator="Mermug">
  <metadata>
    <name>Mermug — 2026-10-10</name>
    <time>2026-10-10T23:36:28Z</time>
  </metadata>
  <trk>
    <name>Mermug — 2026-10-10</name>
    <trkseg>
      <trkpt lat="37.785088" lon="-122.382421">
        <time>2026-10-10T23:36:28Z</time>
        <extensions>
          <gpxtpx:TrackPointExtension>
            <gpxtpx:speed>4.575</gpxtpx:speed>
            <gpxtpx:course>32.7</gpxtpx:course>
          </gpxtpx:TrackPointExtension>
          <sk:windSpeedTrue>8.265</sk:windSpeedTrue>
        </extensions>
      </trkpt>
      <trkpt lat="37.787593" lon="-122.381569">
        <time>2026-10-10T23:37:29Z</time>
        <extensions>
          <gpxtpx:TrackPointExtension>
            <gpxtpx:speed>4.799</gpxtpx:speed>
            <gpxtpx:course>23.8</gpxtpx:course>
          </gpxtpx:TrackPointExtension>
          <sk:windSpeedTrue>6.243</sk:windSpeedTrue>
        </extensions>
      </trkpt>
      <trkpt lat="37.789933" lon="-122.380465">
        <time>2026-10-10T23:38:29Z</time>
        <extensions>
          <gpxtpx:TrackPointExtension>
            <gpxtpx:speed>4.519</gpxtpx:speed>
            <gpxtpx:course>36.8</gpxtpx:course>
          </gpxtpx:TrackPointExtension>
          <sk:windSpeedTrue>7.743</sk:windSpeedTrue>
        </extensions>
      </trkpt>
    </trkseg>
  </trk>
</gpx>
