<?xml version="1.0" encoding="UTF-8"?>
<gpx xmlns="http://www.topografix.com/GPX/1/1" xmlns:gpxtpx="http://www.garmin.com/xmlschemas/TrackPointExtension/v1" version="1.1" creator="Mermug">
  <metadata>
    <name>Mermug — 2026-09-18</name>
    <time>2026-09-18T21:18:47Z</time>
  </metadata>
  <trk>
    <name>Mermug — 2026-09-18</name>
    <trkseg>
      <trkpt lat="37.780207" lon="-122.385804">
        <time>2026-09-18T21:18:47Z</time>
      </trkpt>
      <trkpt lat="37.780207" lon="-122.385804">
        <time>2026-09-18T22:18:35Z</time>
      </trkpt>
      <trkpt lat="37.780207" lon="-122.385804">
        <time>2026-09-18T23:18:24Z</time>
      </trkpt>
      <trkpt lat="37.780207" lon="-122.385804">
        <time>2026-09-19T00:18:11Z</time>
      </trkpt>
      <trkpt lat="37.780207" lon="-122.385804">
        <time>2026-09-19T01:17:58Z</time>
      </trkpt>
      <trkpt lat="37.780207" lon="-122.385804">
        <time>2026-09-19T02:17:46Z</time>
      </trkpt>
      <trkpt lat="37.780207" lon="-122.385804">
        <time>2026-09-19T03:17:32Z</time>
      </trkpt>
      <trkpt lat="37.780207" lon="-122.385804">
        <time>2026-09-19T04:17:20Z</time>
      </trkpt>
      <trkpt lat="37.780207" lon="-122.385804">
        <time>2026-09-19T05:17:08Z</time>
      </trkpt>
      <trkpt lat="37.780207" lon="-122.385804">
        <time>2026-09-19T06:16:56Z</time>
      </trkpt>
    </trkseg>
  </trk>
</gpx>
