<?xml version="1.0" encoding="UTF-8"?>
<gpx xmlns="http://www.topografix.com/GPX/1/1" xmlns:gpxtpx="http://www.garmin.com/xmlschemas/TrackPointExtension/v1" version="1.1" creator="Mermug">
  <metadata>
    <name>Mermug — 2026-09-28</name>
    <time>2026-09-29T01:09:16Z</time>
  </metadata>
  <trk>
    <name>Mermug — 2026-09-28</name>
    <trkseg>
      <trkpt lat="37.785285" lon="-122.381138">
        <time>2026-09-29T01:09:16Z</time>
        <extensions>
          <gpxtpx:TrackPointExtension>
            <gpxtpx:speed>4.191</gpxtpx:speed>
            <gpxtpx:course>45.2</gpxtpx:course>
          </gpxtpx:TrackPointExtension>
        </extensions>
      </trkpt>
      <trkpt lat="37.787020" lon="-122.379402">
        <time>2026-09-29T01:10:16Z</time>
        <extensions>
          <gpxtpx:TrackPointExtension>
            <gpxtpx:speed>4.162</gpxtpx:speed>
            <gpxtpx:course>49.5</gpxtpx:course>
          </gpxtpx:TrackPointExtension>
        </extensions>
      </trkpt>
      <trkpt lat="37.787938" lon="-122.378525">
        <time>2026-09-29T01:10:48Z</time>
        <extensions>
          <gpxtpx:TrackPointExtension>
            <gpxtpx:speed>3.649</gpxtpx:speed>
            <gpxtpx:course>42.3</gpxtpx:course>
          </gpxtpx:TrackPointExtension>
        </extensions>
      </trkpt>
      <trkpt lat="37.788840" lon="-122.378390">
        <time>2026-09-29T01:11:23Z</time>
        <extensions>
          <gpxtpx:TrackPointExtension>
            <gpxtpx:speed>2.407</gpxtpx:speed>
            <gpxtpx:course>341.0</gpxtpx:course>
          </gpxtpx:TrackPointExtension>
        </extensions>
      </trkpt>
      <trkpt lat="37.789496" lon="-122.379250">
        <time>2026-09-29T01:12:24Z</time>
        <extensions>
          <gpxtpx:TrackPointExtension>
            <gpxtpx:speed>1.083</gpxtpx:speed>
            <gpxtpx:course>250.2</gpxtpx:course>
          </gpxtpx:TrackPointExtension>
        </extensions>
      </trkpt>
      <trkpt lat="37.790052" lon="-122.380096">
        <time>2026-09-29T01:13:24Z</time>
        <extensions>
          <gpxtpx:TrackPointExtension>
            <gpxtpx:speed>1.864</gpxtpx:speed>
            <gpxtpx:course>293.5</gpxtpx:course>
          </gpxtpx:TrackPointExtension>
        </extensions>
      </trkpt>
      <trkpt lat="37.790902" lon="-122.380792">
        <time>2026-09-29T01:14:24Z</time>
        <extensions>
          <gpxtpx:TrackPointExtension>
            <gpxtpx:speed>1.864</gpxtpx:speed>
            <gpxtpx:course>291.6</gpxtpx:course>
          </gpxtpx:TrackPointExtension>
        </extensions>
      </trkpt>
      <trkpt lat="37.792187" lon="-122.381715">
        <time>2026-09-29T01:15:25Z</time>
        <extensions>
          <gpxtpx:TrackPointExtension>
            <gpxtpx:speed>4.331</gpxtpx:speed>
            <gpxtpx:course>333.7</gpxtpx:course>
          </gpxtpx:TrackPointExtension>
        </extensions>
      </trkpt>
      <trkpt lat="37.794411" lon="-122.382836">
        <time>2026-09-29T01:16:26Z</time>
        <extensions>
          <gpxtpx:TrackPointExtension>
            <gpxtpx:speed>3.651</gpxtpx:speed>
            <gpxtpx:course>337.7</gpxtpx:course>
          </gpxtpx:TrackPointExtension>
        </extensions>
      </trkpt>
      <trkpt lat="37.796561" lon="-122.383639">
        <time>2026-09-29T01:17:27Z</time>
        <extensions>
          <gpxtpx:TrackPointExtension>
            <gpxtpx:speed>4.760</gpxtpx:speed>
            <gpxtpx:course>345.0</gpxtpx:course>
          </gpxtpx:TrackPointExtension>
        </extensions>
      </trkpt>
      <trkpt lat="37.798795" lon="-122.384311">
        <time>2026-09-29T01:18:28Z</time>
        <extensions>
          <gpxtpx:TrackPointExtension>
            <gpxtpx:speed>4.539</gpxtpx:speed>
            <gpxtpx:course>346.9</gpxtpx:course>
          </gpxtpx:TrackPointExtension>
        </extensions>
      </trkpt>
    </trkseg>
  </trk>
</gpx>
