<?xml version="1.0" encoding="UTF-8"?>
<gpx xmlns="http://www.topografix.com/GPX/1/1" xmlns:gpxtpx="http://www.garmin.com/xmlschemas/TrackPointExtension/v1" version="1.1" creator="S.V.Mermug">
  <metadata>
    <name>S.V.Mermug — 2026-09-11</name>
    <time>2026-09-11T20:18:38Z</time>
  </metadata>
  <trk>
    <name>S.V.Mermug — 2026-09-11</name>
    <trkseg>
      <trkpt lat="37.797480" lon="-122.382468">
        <time>2026-09-11T20:18:38Z</time>
        <extensions>
          <gpxtpx:TrackPointExtension>
            <gpxtpx:speed>3.817</gpxtpx:speed>
            <gpxtpx:course>335.0</gpxtpx:course>
          </gpxtpx:TrackPointExtension>
        </extensions>
      </trkpt>
      <trkpt lat="37.800784" lon="-122.384940">
        <time>2026-09-11T20:20:40Z</time>
        <extensions>
          <gpxtpx:TrackPointExtension>
            <gpxtpx:speed>3.394</gpxtpx:speed>
            <gpxtpx:course>313.5</gpxtpx:course>
          </gpxtpx:TrackPointExtension>
        </extensions>
      </trkpt>
      <trkpt lat="37.803871" lon="-122.388065">
        <time>2026-09-11T20:22:43Z</time>
        <extensions>
          <gpxtpx:TrackPointExtension>
            <gpxtpx:speed>2.953</gpxtpx:speed>
            <gpxtpx:course>308.5</gpxtpx:course>
          </gpxtpx:TrackPointExtension>
        </extensions>
      </trkpt>
      <trkpt lat="37.806733" lon="-122.391101">
        <time>2026-09-11T20:24:45Z</time>
        <extensions>
          <gpxtpx:TrackPointExtension>
            <gpxtpx:speed>3.997</gpxtpx:speed>
            <gpxtpx:course>313.5</gpxtpx:course>
          </gpxtpx:TrackPointExtension>
        </extensions>
      </trkpt>
      <trkpt lat="37.809865" lon="-122.394068">
        <time>2026-09-11T20:26:48Z</time>
        <extensions>
          <gpxtpx:TrackPointExtension>
            <gpxtpx:speed>3.832</gpxtpx:speed>
            <gpxtpx:course>332.3</gpxtpx:course>
          </gpxtpx:TrackPointExtension>
        </extensions>
      </trkpt>
      <trkpt lat="37.812830" lon="-122.397647">
        <time>2026-09-11T20:28:51Z</time>
        <extensions>
          <gpxtpx:TrackPointExtension>
            <gpxtpx:speed>3.357</gpxtpx:speed>
            <gpxtpx:course>286.3</gpxtpx:course>
          </gpxtpx:TrackPointExtension>
        </extensions>
      </trkpt>
      <trkpt lat="37.814959" lon="-122.402066">
        <time>2026-09-11T20:30:54Z</time>
        <extensions>
          <gpxtpx:TrackPointExtension>
            <gpxtpx:speed>3.927</gpxtpx:speed>
            <gpxtpx:course>288.7</gpxtpx:course>
          </gpxtpx:TrackPointExtension>
        </extensions>
      </trkpt>
      <trkpt lat="37.817393" lon="-122.406430">
        <time>2026-09-11T20:32:56Z</time>
        <extensions>
          <gpxtpx:TrackPointExtension>
            <gpxtpx:speed>3.791</gpxtpx:speed>
            <gpxtpx:course>296.6</gpxtpx:course>
          </gpxtpx:TrackPointExtension>
        </extensions>
      </trkpt>
      <trkpt lat="37.819610" lon="-122.410524">
        <time>2026-09-11T20:34:58Z</time>
        <extensions>
          <gpxtpx:TrackPointExtension>
            <gpxtpx:speed>3.687</gpxtpx:speed>
            <gpxtpx:course>293.3</gpxtpx:course>
          </gpxtpx:TrackPointExtension>
        </extensions>
      </trkpt>
      <trkpt lat="37.821859" lon="-122.414582">
        <time>2026-09-11T20:37:01Z</time>
        <extensions>
          <gpxtpx:TrackPointExtension>
            <gpxtpx:speed>3.465</gpxtpx:speed>
            <gpxtpx:course>291.2</gpxtpx:course>
          </gpxtpx:TrackPointExtension>
        </extensions>
      </trkpt>
      <trkpt lat="37.820299" lon="-122.416618">
        <time>2026-09-11T20:39:03Z</time>
        <extensions>
          <gpxtpx:TrackPointExtension>
            <gpxtpx:speed>3.366</gpxtpx:speed>
            <gpxtpx:course>214.0</gpxtpx:course>
          </gpxtpx:TrackPointExtension>
        </extensions>
      </trkpt>
      <trkpt lat="37.817705" lon="-122.419204">
        <time>2026-09-11T20:41:05Z</time>
        <extensions>
          <gpxtpx:TrackPointExtension>
            <gpxtpx:speed>3.434</gpxtpx:speed>
            <gpxtpx:course>224.9</gpxtpx:course>
          </gpxtpx:TrackPointExtension>
        </extensions>
      </trkpt>
      <trkpt lat="37.814967" lon="-122.422271">
        <time>2026-09-11T20:43:07Z</time>
        <extensions>
          <gpxtpx:TrackPointExtension>
            <gpxtpx:speed>3.548</gpxtpx:speed>
            <gpxtpx:course>219.4</gpxtpx:course>
          </gpxtpx:TrackPointExtension>
        </extensions>
      </trkpt>
      <trkpt lat="37.814727" lon="-122.425986">
        <time>2026-09-11T20:45:10Z</time>
        <extensions>
          <gpxtpx:TrackPointExtension>
            <gpxtpx:speed>3.604</gpxtpx:speed>
            <gpxtpx:course>288.1</gpxtpx:course>
          </gpxtpx:TrackPointExtension>
        </extensions>
      </trkpt>
      <trkpt lat="37.816794" lon="-122.430522">
        <time>2026-09-11T20:47:12Z</time>
        <extensions>
          <gpxtpx:TrackPointExtension>
            <gpxtpx:speed>3.849</gpxtpx:speed>
            <gpxtpx:course>282.5</gpxtpx:course>
          </gpxtpx:TrackPointExtension>
        </extensions>
      </trkpt>
      <trkpt lat="37.817961" lon="-122.434393">
        <time>2026-09-11T20:49:15Z</time>
        <extensions>
          <gpxtpx:TrackPointExtension>
            <gpxtpx:speed>2.798</gpxtpx:speed>
            <gpxtpx:course>279.3</gpxtpx:course>
          </gpxtpx:TrackPointExtension>
        </extensions>
      </trkpt>
      <trkpt lat="37.819105" lon="-122.437757">
        <time>2026-09-11T20:51:17Z</time>
        <extensions>
          <gpxtpx:TrackPointExtension>
            <gpxtpx:speed>2.894</gpxtpx:speed>
            <gpxtpx:course>282.6</gpxtpx:course>
          </gpxtpx:TrackPointExtension>
        </extensions>
      </trkpt>
      <trkpt lat="37.820234" lon="-122.441581">
        <time>2026-09-11T20:53:19Z</time>
        <extensions>
          <gpxtpx:TrackPointExtension>
            <gpxtpx:speed>2.870</gpxtpx:speed>
            <gpxtpx:course>277.8</gpxtpx:course>
          </gpxtpx:TrackPointExtension>
        </extensions>
      </trkpt>
      <trkpt lat="37.821767" lon="-122.445581">
        <time>2026-09-11T20:55:22Z</time>
        <extensions>
          <gpxtpx:TrackPointExtension>
            <gpxtpx:speed>3.401</gpxtpx:speed>
            <gpxtpx:course>287.5</gpxtpx:course>
          </gpxtpx:TrackPointExtension>
        </extensions>
      </trkpt>
      <trkpt lat="37.823348" lon="-122.449840">
        <time>2026-09-11T20:57:24Z</time>
        <extensions>
          <gpxtpx:TrackPointExtension>
            <gpxtpx:speed>3.646</gpxtpx:speed>
            <gpxtpx:course>285.6</gpxtpx:course>
          </gpxtpx:TrackPointExtension>
        </extensions>
      </trkpt>
      <trkpt lat="37.825268" lon="-122.454201">
        <time>2026-09-11T20:59:26Z</time>
        <extensions>
          <gpxtpx:TrackPointExtension>
            <gpxtpx:speed>3.393</gpxtpx:speed>
            <gpxtpx:course>279.8</gpxtpx:course>
          </gpxtpx:TrackPointExtension>
        </extensions>
      </trkpt>
      <trkpt lat="37.824139" lon="-122.457042">
        <time>2026-09-11T21:01:29Z</time>
        <extensions>
          <gpxtpx:TrackPointExtension>
            <gpxtpx:speed>3.185</gpxtpx:speed>
            <gpxtpx:course>212.8</gpxtpx:course>
          </gpxtpx:TrackPointExtension>
        </extensions>
      </trkpt>
      <trkpt lat="37.820858" lon="-122.458898">
        <time>2026-09-11T21:03:32Z</time>
        <extensions>
          <gpxtpx:TrackPointExtension>
            <gpxtpx:speed>3.282</gpxtpx:speed>
            <gpxtpx:course>221.2</gpxtpx:course>
          </gpxtpx:TrackPointExtension>
        </extensions>
      </trkpt>
      <trkpt lat="37.817642" lon="-122.460096">
        <time>2026-09-11T21:05:35Z</time>
        <extensions>
          <gpxtpx:TrackPointExtension>
            <gpxtpx:speed>2.989</gpxtpx:speed>
            <gpxtpx:course>162.9</gpxtpx:course>
          </gpxtpx:TrackPointExtension>
        </extensions>
      </trkpt>
      <trkpt lat="37.815283" lon="-122.458422">
        <time>2026-09-11T21:07:38Z</time>
        <extensions>
          <gpxtpx:TrackPointExtension>
            <gpxtpx:speed>2.532</gpxtpx:speed>
            <gpxtpx:course>220.5</gpxtpx:course>
          </gpxtpx:TrackPointExtension>
        </extensions>
      </trkpt>
      <trkpt lat="37.812455" lon="-122.461354">
        <time>2026-09-11T21:09:41Z</time>
        <extensions>
          <gpxtpx:TrackPointExtension>
            <gpxtpx:speed>3.362</gpxtpx:speed>
            <gpxtpx:course>212.7</gpxtpx:course>
          </gpxtpx:TrackPointExtension>
        </extensions>
      </trkpt>
      <trkpt lat="37.811303" lon="-122.464572">
        <time>2026-09-11T21:11:44Z</time>
        <extensions>
          <gpxtpx:TrackPointExtension>
            <gpxtpx:speed>2.923</gpxtpx:speed>
            <gpxtpx:course>310.3</gpxtpx:course>
          </gpxtpx:TrackPointExtension>
        </extensions>
      </trkpt>
      <trkpt lat="37.813873" lon="-122.469106">
        <time>2026-09-11T21:13:46Z</time>
        <extensions>
          <gpxtpx:TrackPointExtension>
            <gpxtpx:speed>4.209</gpxtpx:speed>
            <gpxtpx:course>287.0</gpxtpx:course>
          </gpxtpx:TrackPointExtension>
        </extensions>
      </trkpt>
      <trkpt lat="37.816161" lon="-122.474184">
        <time>2026-09-11T21:15:50Z</time>
        <extensions>
          <gpxtpx:TrackPointExtension>
            <gpxtpx:speed>4.019</gpxtpx:speed>
            <gpxtpx:course>285.7</gpxtpx:course>
          </gpxtpx:TrackPointExtension>
        </extensions>
      </trkpt>
      <trkpt lat="37.818469" lon="-122.479285">
        <time>2026-09-11T21:17:54Z</time>
        <extensions>
          <gpxtpx:TrackPointExtension>
            <gpxtpx:speed>4.231</gpxtpx:speed>
            <gpxtpx:course>296.5</gpxtpx:course>
          </gpxtpx:TrackPointExtension>
        </extensions>
      </trkpt>
      <trkpt lat="37.820105" lon="-122.476362">
        <time>2026-09-11T21:19:57Z</time>
        <extensions>
          <gpxtpx:TrackPointExtension>
            <gpxtpx:speed>3.204</gpxtpx:speed>
            <gpxtpx:course>85.6</gpxtpx:course>
          </gpxtpx:TrackPointExtension>
        </extensions>
      </trkpt>
      <trkpt lat="37.819280" lon="-122.471707">
        <time>2026-09-11T21:21:59Z</time>
        <extensions>
          <gpxtpx:TrackPointExtension>
            <gpxtpx:speed>4.368</gpxtpx:speed>
            <gpxtpx:course>111.3</gpxtpx:course>
          </gpxtpx:TrackPointExtension>
        </extensions>
      </trkpt>
      <trkpt lat="37.817482" lon="-122.466500">
        <time>2026-09-11T21:24:01Z</time>
        <extensions>
          <gpxtpx:TrackPointExtension>
            <gpxtpx:speed>4.027</gpxtpx:speed>
            <gpxtpx:course>105.5</gpxtpx:course>
          </gpxtpx:TrackPointExtension>
        </extensions>
      </trkpt>
    </trkseg>
  </trk>
</gpx>
