<?xml version="1.0" encoding="UTF-8"?>
<gpx xmlns="http://www.topografix.com/GPX/1/1" xmlns:gpxtpx="http://www.garmin.com/xmlschemas/TrackPointExtension/v1" version="1.1" creator="Mermug">
  <metadata>
    <name>Mermug — 2026-09-19</name>
    <time>2026-09-19T07:16:42Z</time>
  </metadata>
  <trk>
    <name>Mermug — 2026-09-19</name>
    <trkseg>
      <trkpt lat="37.780207" lon="-122.385804">
        <time>2026-09-19T07:16:42Z</time>
      </trkpt>
      <trkpt lat="37.780207" lon="-122.385804">
        <time>2026-09-19T08:16:28Z</time>
      </trkpt>
      <trkpt lat="37.780207" lon="-122.385804">
        <time>2026-09-19T09:16:14Z</time>
      </trkpt>
      <trkpt lat="37.780207" lon="-122.385804">
        <time>2026-09-19T10:15:58Z</time>
      </trkpt>
      <trkpt lat="37.780207" lon="-122.385804">
        <time>2026-09-19T11:15:45Z</time>
      </trkpt>
      <trkpt lat="37.780207" lon="-122.385804">
        <time>2026-09-19T12:15:31Z</time>
      </trkpt>
      <trkpt lat="37.780207" lon="-122.385804">
        <time>2026-09-19T13:15:17Z</time>
      </trkpt>
      <trkpt lat="37.780207" lon="-122.385804">
        <time>2026-09-19T14:15:03Z</time>
      </trkpt>
      <trkpt lat="37.780207" lon="-122.385804">
        <time>2026-09-19T15:14:50Z</time>
      </trkpt>
      <trkpt lat="37.780207" lon="-122.385804">
        <time>2026-09-19T16:14:36Z</time>
      </trkpt>
      <trkpt lat="37.780207" lon="-122.385804">
        <time>2026-09-19T17:14:21Z</time>
      </trkpt>
      <trkpt lat="37.780207" lon="-122.385804">
        <time>2026-09-19T18:14:08Z</time>
      </trkpt>
      <trkpt lat="37.780207" lon="-122.385804">
        <time>2026-09-19T19:13:55Z</time>
      </trkpt>
      <trkpt lat="37.780207" lon="-122.385804">
        <time>2026-09-19T20:13:47Z</time>
      </trkpt>
      <trkpt lat="37.781007" lon="-122.385478">
        <time>2026-09-19T20:38:53Z</time>
        <extensions>
          <gpxtpx:TrackPointExtension>
            <gpxtpx:speed>0.017</gpxtpx:speed>
            <gpxtpx:course>353.0</gpxtpx:course>
          </gpxtpx:TrackPointExtension>
        </extensions>
      </trkpt>
      <trkpt lat="37.781017" lon="-122.385468">
        <time>2026-09-19T20:41:42Z</time>
        <extensions>
          <gpxtpx:TrackPointExtension>
            <gpxtpx:speed>0.026</gpxtpx:speed>
            <gpxtpx:course>352.9</gpxtpx:course>
          </gpxtpx:TrackPointExtension>
        </extensions>
      </trkpt>
      <trkpt lat="37.781017" lon="-122.385468">
        <time>2026-09-19T20:41:43Z</time>
        <extensions>
          <gpxtpx:TrackPointExtension>
            <gpxtpx:speed>0.021</gpxtpx:speed>
            <gpxtpx:course>352.8</gpxtpx:course>
          </gpxtpx:TrackPointExtension>
        </extensions>
      </trkpt>
      <trkpt lat="37.781016" lon="-122.385468">
        <time>2026-09-19T20:41:44Z</time>
        <extensions>
          <gpxtpx:TrackPointExtension>
            <gpxtpx:speed>0.048</gpxtpx:speed>
            <gpxtpx:course>353.0</gpxtpx:course>
          </gpxtpx:TrackPointExtension>
        </extensions>
      </trkpt>
      <trkpt lat="37.781006" lon="-122.385484">
        <time>2026-09-19T21:41:34Z</time>
        <extensions>
          <gpxtpx:TrackPointExtension>
            <gpxtpx:speed>0.044</gpxtpx:speed>
            <gpxtpx:course>352.5</gpxtpx:course>
          </gpxtpx:TrackPointExtension>
        </extensions>
      </trkpt>
      <trkpt lat="37.781006" lon="-122.385485">
        <time>2026-09-19T21:41:38Z</time>
        <extensions>
          <gpxtpx:TrackPointExtension>
            <gpxtpx:speed>0.091</gpxtpx:speed>
            <gpxtpx:course>353.8</gpxtpx:course>
          </gpxtpx:TrackPointExtension>
        </extensions>
      </trkpt>
      <trkpt lat="37.781024" lon="-122.385445">
        <time>2026-09-19T22:41:24Z</time>
        <extensions>
          <gpxtpx:TrackPointExtension>
            <gpxtpx:speed>0.072</gpxtpx:speed>
            <gpxtpx:course>353.1</gpxtpx:course>
          </gpxtpx:TrackPointExtension>
        </extensions>
      </trkpt>
      <trkpt lat="37.781023" lon="-122.385446">
        <time>2026-09-19T22:41:27Z</time>
        <extensions>
          <gpxtpx:TrackPointExtension>
            <gpxtpx:speed>0.028</gpxtpx:speed>
            <gpxtpx:course>353.6</gpxtpx:course>
          </gpxtpx:TrackPointExtension>
        </extensions>
      </trkpt>
      <trkpt lat="37.781003" lon="-122.385467">
        <time>2026-09-19T23:41:12Z</time>
        <extensions>
          <gpxtpx:TrackPointExtension>
            <gpxtpx:speed>0.033</gpxtpx:speed>
            <gpxtpx:course>352.3</gpxtpx:course>
          </gpxtpx:TrackPointExtension>
        </extensions>
      </trkpt>
      <trkpt lat="37.781001" lon="-122.385468">
        <time>2026-09-19T23:42:05Z</time>
        <extensions>
          <gpxtpx:TrackPointExtension>
            <gpxtpx:speed>0.044</gpxtpx:speed>
            <gpxtpx:course>354.0</gpxtpx:course>
          </gpxtpx:TrackPointExtension>
        </extensions>
      </trkpt>
      <trkpt lat="37.781031" lon="-122.385462">
        <time>2026-09-20T00:30:54Z</time>
        <extensions>
          <gpxtpx:TrackPointExtension>
            <gpxtpx:speed>0.060</gpxtpx:speed>
            <gpxtpx:course>353.2</gpxtpx:course>
          </gpxtpx:TrackPointExtension>
        </extensions>
      </trkpt>
      <trkpt lat="37.781019" lon="-122.385463">
        <time>2026-09-20T01:30:55Z</time>
        <extensions>
          <gpxtpx:TrackPointExtension>
            <gpxtpx:speed>0.015</gpxtpx:speed>
            <gpxtpx:course>353.0</gpxtpx:course>
          </gpxtpx:TrackPointExtension>
        </extensions>
      </trkpt>
      <trkpt lat="37.781020" lon="-122.385457">
        <time>2026-09-20T02:30:47Z</time>
        <extensions>
          <gpxtpx:TrackPointExtension>
            <gpxtpx:speed>0.074</gpxtpx:speed>
            <gpxtpx:course>353.6</gpxtpx:course>
          </gpxtpx:TrackPointExtension>
        </extensions>
      </trkpt>
      <trkpt lat="37.781026" lon="-122.385455">
        <time>2026-09-20T03:30:39Z</time>
        <extensions>
          <gpxtpx:TrackPointExtension>
            <gpxtpx:speed>0.083</gpxtpx:speed>
            <gpxtpx:course>353.2</gpxtpx:course>
          </gpxtpx:TrackPointExtension>
        </extensions>
      </trkpt>
      <trkpt lat="37.781016" lon="-122.385467">
        <time>2026-09-20T04:26:08Z</time>
        <extensions>
          <gpxtpx:TrackPointExtension>
            <gpxtpx:speed>0.070</gpxtpx:speed>
            <gpxtpx:course>353.0</gpxtpx:course>
          </gpxtpx:TrackPointExtension>
        </extensions>
      </trkpt>
      <trkpt lat="37.781015" lon="-122.385469">
        <time>2026-09-20T04:27:44Z</time>
        <extensions>
          <gpxtpx:TrackPointExtension>
            <gpxtpx:speed>0.041</gpxtpx:speed>
            <gpxtpx:course>353.0</gpxtpx:course>
          </gpxtpx:TrackPointExtension>
        </extensions>
      </trkpt>
    </trkseg>
  </trk>
</gpx>
