<?xml version="1.0" encoding="UTF-8"?>
<gpx xmlns="http://www.topografix.com/GPX/1/1" xmlns:gpxtpx="http://www.garmin.com/xmlschemas/TrackPointExtension/v1" version="1.1" creator="S.V.Mermug">
  <metadata>
    <name>S.V.Mermug — 2026-08-08</name>
    <time>2026-08-08T22:18:10Z</time>
  </metadata>
  <trk>
    <name>S.V.Mermug — 2026-08-08</name>
    <trkseg>
      <trkpt lat="37.795254" lon="-122.383424">
        <time>2026-08-08T22:18:10Z</time>
        <extensions>
          <gpxtpx:TrackPointExtension>
            <gpxtpx:speed>1.910</gpxtpx:speed>
            <gpxtpx:course>155.2</gpxtpx:course>
          </gpxtpx:TrackPointExtension>
        </extensions>
      </trkpt>
      <trkpt lat="37.794070" lon="-122.382563">
        <time>2026-08-08T22:20:12Z</time>
        <extensions>
          <gpxtpx:TrackPointExtension>
            <gpxtpx:speed>2.520</gpxtpx:speed>
            <gpxtpx:course>156.9</gpxtpx:course>
          </gpxtpx:TrackPointExtension>
        </extensions>
      </trkpt>
      <trkpt lat="37.790712" lon="-122.380248">
        <time>2026-08-08T22:22:14Z</time>
        <extensions>
          <gpxtpx:TrackPointExtension>
            <gpxtpx:speed>3.700</gpxtpx:speed>
            <gpxtpx:course>158.3</gpxtpx:course>
          </gpxtpx:TrackPointExtension>
        </extensions>
      </trkpt>
    </trkseg>
  </trk>
</gpx>
