<?xml version="1.0" encoding="UTF-8"?>
<gpx xmlns="http://www.topografix.com/GPX/1/1" xmlns:gpxtpx="http://www.garmin.com/xmlschemas/TrackPointExtension/v1" version="1.1" creator="Mermug">
  <metadata>
    <name>Mermug — 2026-09-20</name>
    <time>2026-09-20T07:45:55Z</time>
  </metadata>
  <trk>
    <name>Mermug — 2026-09-20</name>
    <trkseg>
      <trkpt lat="37.781023" lon="-122.385467">
        <time>2026-09-20T07:45:55Z</time>
        <extensions>
          <gpxtpx:TrackPointExtension>
            <gpxtpx:speed>0.031</gpxtpx:speed>
            <gpxtpx:course>353.5</gpxtpx:course>
          </gpxtpx:TrackPointExtension>
        </extensions>
      </trkpt>
    </trkseg>
  </trk>
</gpx>
