<?xml version="1.0" encoding="UTF-8"?>
<gpx xmlns="http://www.topografix.com/GPX/1/1" xmlns:gpxtpx="http://www.garmin.com/xmlschemas/TrackPointExtension/v1" version="1.1" creator="S.V.Mermug">
  <metadata>
    <name>S.V.Mermug — 2026-08-20</name>
    <time>2026-08-20T00:01:46Z</time>
  </metadata>
  <trk>
    <name>S.V.Mermug — 2026-08-20</name>
    <trkseg>
      <trkpt lat="37.863428" lon="-122.487710">
        <time>2026-08-20T00:01:46Z</time>
        <extensions>
          <gpxtpx:TrackPointExtension>
            <gpxtpx:speed>0.040</gpxtpx:speed>
            <gpxtpx:course>39.6</gpxtpx:course>
          </gpxtpx:TrackPointExtension>
        </extensions>
      </trkpt>
      <trkpt lat="37.863444" lon="-122.487696">
        <time>2026-08-20T00:03:48Z</time>
        <extensions>
          <gpxtpx:TrackPointExtension>
            <gpxtpx:speed>0.050</gpxtpx:speed>
            <gpxtpx:course>40.2</gpxtpx:course>
          </gpxtpx:TrackPointExtension>
        </extensions>
      </trkpt>
      <trkpt lat="37.864043" lon="-122.486917">
        <time>2026-08-20T00:05:50Z</time>
        <extensions>
          <gpxtpx:TrackPointExtension>
            <gpxtpx:speed>2.590</gpxtpx:speed>
            <gpxtpx:course>78.0</gpxtpx:course>
          </gpxtpx:TrackPointExtension>
        </extensions>
      </trkpt>
    </trkseg>
  </trk>
</gpx>
