<?xml version="1.0" encoding="UTF-8"?>
<gpx xmlns="http://www.topografix.com/GPX/1/1" xmlns:gpxtpx="http://www.garmin.com/xmlschemas/TrackPointExtension/v1" version="1.1" creator="Mermug">
  <metadata>
    <name>Mermug — 2026-09-21</name>
    <time>2026-09-21T07:04:51Z</time>
  </metadata>
  <trk>
    <name>Mermug — 2026-09-21</name>
    <trkseg>
      <trkpt lat="37.781021" lon="-122.385471">
        <time>2026-09-21T07:04:51Z</time>
        <extensions>
          <gpxtpx:TrackPointExtension>
            <gpxtpx:speed>0.162</gpxtpx:speed>
            <gpxtpx:course>352.7</gpxtpx:course>
          </gpxtpx:TrackPointExtension>
        </extensions>
      </trkpt>
      <trkpt lat="37.781020" lon="-122.385444">
        <time>2026-09-21T07:09:52Z</time>
        <extensions>
          <gpxtpx:TrackPointExtension>
            <gpxtpx:speed>0.029</gpxtpx:speed>
            <gpxtpx:course>352.7</gpxtpx:course>
          </gpxtpx:TrackPointExtension>
        </extensions>
      </trkpt>
      <trkpt lat="37.781018" lon="-122.385460">
        <time>2026-09-21T07:14:52Z</time>
        <extensions>
          <gpxtpx:TrackPointExtension>
            <gpxtpx:speed>0.012</gpxtpx:speed>
            <gpxtpx:course>352.7</gpxtpx:course>
          </gpxtpx:TrackPointExtension>
        </extensions>
      </trkpt>
      <trkpt lat="37.781017" lon="-122.385453">
        <time>2026-09-21T07:19:52Z</time>
        <extensions>
          <gpxtpx:TrackPointExtension>
            <gpxtpx:speed>0.065</gpxtpx:speed>
            <gpxtpx:course>352.7</gpxtpx:course>
          </gpxtpx:TrackPointExtension>
        </extensions>
      </trkpt>
      <trkpt lat="37.781009" lon="-122.385460">
        <time>2026-09-21T07:24:52Z</time>
        <extensions>
          <gpxtpx:TrackPointExtension>
            <gpxtpx:speed>0.075</gpxtpx:speed>
            <gpxtpx:course>352.7</gpxtpx:course>
          </gpxtpx:TrackPointExtension>
        </extensions>
      </trkpt>
      <trkpt lat="37.781017" lon="-122.385447">
        <time>2026-09-21T07:29:52Z</time>
        <extensions>
          <gpxtpx:TrackPointExtension>
            <gpxtpx:speed>0.172</gpxtpx:speed>
            <gpxtpx:course>352.7</gpxtpx:course>
          </gpxtpx:TrackPointExtension>
        </extensions>
      </trkpt>
      <trkpt lat="37.781024" lon="-122.385441">
        <time>2026-09-21T07:34:52Z</time>
        <extensions>
          <gpxtpx:TrackPointExtension>
            <gpxtpx:speed>0.071</gpxtpx:speed>
            <gpxtpx:course>352.7</gpxtpx:course>
          </gpxtpx:TrackPointExtension>
        </extensions>
      </trkpt>
      <trkpt lat="37.781016" lon="-122.385454">
        <time>2026-09-21T07:39:52Z</time>
        <extensions>
          <gpxtpx:TrackPointExtension>
            <gpxtpx:speed>0.050</gpxtpx:speed>
            <gpxtpx:course>352.7</gpxtpx:course>
          </gpxtpx:TrackPointExtension>
        </extensions>
      </trkpt>
      <trkpt lat="37.781021" lon="-122.385444">
        <time>2026-09-21T07:44:52Z</time>
        <extensions>
          <gpxtpx:TrackPointExtension>
            <gpxtpx:speed>0.010</gpxtpx:speed>
            <gpxtpx:course>352.7</gpxtpx:course>
          </gpxtpx:TrackPointExtension>
        </extensions>
      </trkpt>
      <trkpt lat="37.781025" lon="-122.385452">
        <time>2026-09-21T07:49:53Z</time>
        <extensions>
          <gpxtpx:TrackPointExtension>
            <gpxtpx:speed>0.044</gpxtpx:speed>
            <gpxtpx:course>352.7</gpxtpx:course>
          </gpxtpx:TrackPointExtension>
        </extensions>
      </trkpt>
      <trkpt lat="37.781030" lon="-122.385459">
        <time>2026-09-21T07:54:53Z</time>
        <extensions>
          <gpxtpx:TrackPointExtension>
            <gpxtpx:speed>0.146</gpxtpx:speed>
            <gpxtpx:course>352.7</gpxtpx:course>
          </gpxtpx:TrackPointExtension>
        </extensions>
      </trkpt>
      <trkpt lat="37.781012" lon="-122.385472">
        <time>2026-09-21T07:59:53Z</time>
        <extensions>
          <gpxtpx:TrackPointExtension>
            <gpxtpx:speed>0.117</gpxtpx:speed>
            <gpxtpx:course>352.7</gpxtpx:course>
          </gpxtpx:TrackPointExtension>
        </extensions>
      </trkpt>
      <trkpt lat="37.781012" lon="-122.385473">
        <time>2026-09-21T08:04:53Z</time>
        <extensions>
          <gpxtpx:TrackPointExtension>
            <gpxtpx:speed>0.044</gpxtpx:speed>
            <gpxtpx:course>352.7</gpxtpx:course>
          </gpxtpx:TrackPointExtension>
        </extensions>
      </trkpt>
      <trkpt lat="37.781029" lon="-122.385470">
        <time>2026-09-21T08:09:53Z</time>
        <extensions>
          <gpxtpx:TrackPointExtension>
            <gpxtpx:speed>0.021</gpxtpx:speed>
            <gpxtpx:course>352.7</gpxtpx:course>
          </gpxtpx:TrackPointExtension>
        </extensions>
      </trkpt>
      <trkpt lat="37.781015" lon="-122.385472">
        <time>2026-09-21T08:14:53Z</time>
        <extensions>
          <gpxtpx:TrackPointExtension>
            <gpxtpx:speed>0.024</gpxtpx:speed>
            <gpxtpx:course>352.7</gpxtpx:course>
          </gpxtpx:TrackPointExtension>
        </extensions>
      </trkpt>
      <trkpt lat="37.780996" lon="-122.385482">
        <time>2026-09-21T08:19:54Z</time>
        <extensions>
          <gpxtpx:TrackPointExtension>
            <gpxtpx:speed>0.057</gpxtpx:speed>
            <gpxtpx:course>352.7</gpxtpx:course>
          </gpxtpx:TrackPointExtension>
        </extensions>
      </trkpt>
      <trkpt lat="37.780996" lon="-122.385469">
        <time>2026-09-21T08:24:54Z</time>
        <extensions>
          <gpxtpx:TrackPointExtension>
            <gpxtpx:speed>0.063</gpxtpx:speed>
            <gpxtpx:course>352.7</gpxtpx:course>
          </gpxtpx:TrackPointExtension>
        </extensions>
      </trkpt>
      <trkpt lat="37.781008" lon="-122.385461">
        <time>2026-09-21T08:29:54Z</time>
        <extensions>
          <gpxtpx:TrackPointExtension>
            <gpxtpx:speed>0.091</gpxtpx:speed>
            <gpxtpx:course>352.7</gpxtpx:course>
          </gpxtpx:TrackPointExtension>
        </extensions>
      </trkpt>
      <trkpt lat="37.781000" lon="-122.385462">
        <time>2026-09-21T08:34:54Z</time>
        <extensions>
          <gpxtpx:TrackPointExtension>
            <gpxtpx:speed>0.006</gpxtpx:speed>
            <gpxtpx:course>352.7</gpxtpx:course>
          </gpxtpx:TrackPointExtension>
        </extensions>
      </trkpt>
      <trkpt lat="37.780997" lon="-122.385468">
        <time>2026-09-21T08:39:54Z</time>
        <extensions>
          <gpxtpx:TrackPointExtension>
            <gpxtpx:speed>0.028</gpxtpx:speed>
            <gpxtpx:course>352.7</gpxtpx:course>
          </gpxtpx:TrackPointExtension>
        </extensions>
      </trkpt>
      <trkpt lat="37.780995" lon="-122.385463">
        <time>2026-09-21T08:44:54Z</time>
        <extensions>
          <gpxtpx:TrackPointExtension>
            <gpxtpx:speed>0.039</gpxtpx:speed>
            <gpxtpx:course>352.7</gpxtpx:course>
          </gpxtpx:TrackPointExtension>
        </extensions>
      </trkpt>
      <trkpt lat="37.781008" lon="-122.385449">
        <time>2026-09-21T08:49:54Z</time>
        <extensions>
          <gpxtpx:TrackPointExtension>
            <gpxtpx:speed>0.137</gpxtpx:speed>
            <gpxtpx:course>352.7</gpxtpx:course>
          </gpxtpx:TrackPointExtension>
        </extensions>
      </trkpt>
      <trkpt lat="37.781007" lon="-122.385457">
        <time>2026-09-21T08:54:54Z</time>
        <extensions>
          <gpxtpx:TrackPointExtension>
            <gpxtpx:speed>0.019</gpxtpx:speed>
            <gpxtpx:course>352.7</gpxtpx:course>
          </gpxtpx:TrackPointExtension>
        </extensions>
      </trkpt>
      <trkpt lat="37.781008" lon="-122.385470">
        <time>2026-09-21T08:59:54Z</time>
        <extensions>
          <gpxtpx:TrackPointExtension>
            <gpxtpx:speed>0.021</gpxtpx:speed>
            <gpxtpx:course>352.7</gpxtpx:course>
          </gpxtpx:TrackPointExtension>
        </extensions>
      </trkpt>
      <trkpt lat="37.781006" lon="-122.385456">
        <time>2026-09-21T09:04:54Z</time>
        <extensions>
          <gpxtpx:TrackPointExtension>
            <gpxtpx:speed>0.043</gpxtpx:speed>
            <gpxtpx:course>352.7</gpxtpx:course>
          </gpxtpx:TrackPointExtension>
        </extensions>
      </trkpt>
      <trkpt lat="37.781010" lon="-122.385463">
        <time>2026-09-21T09:09:54Z</time>
        <extensions>
          <gpxtpx:TrackPointExtension>
            <gpxtpx:speed>0.017</gpxtpx:speed>
            <gpxtpx:course>352.7</gpxtpx:course>
          </gpxtpx:TrackPointExtension>
        </extensions>
      </trkpt>
      <trkpt lat="37.781003" lon="-122.385462">
        <time>2026-09-21T09:14:54Z</time>
        <extensions>
          <gpxtpx:TrackPointExtension>
            <gpxtpx:speed>0.050</gpxtpx:speed>
            <gpxtpx:course>352.7</gpxtpx:course>
          </gpxtpx:TrackPointExtension>
        </extensions>
      </trkpt>
      <trkpt lat="37.781010" lon="-122.385462">
        <time>2026-09-21T09:19:54Z</time>
        <extensions>
          <gpxtpx:TrackPointExtension>
            <gpxtpx:speed>0.006</gpxtpx:speed>
            <gpxtpx:course>352.7</gpxtpx:course>
          </gpxtpx:TrackPointExtension>
        </extensions>
      </trkpt>
      <trkpt lat="37.781011" lon="-122.385456">
        <time>2026-09-21T09:24:54Z</time>
        <extensions>
          <gpxtpx:TrackPointExtension>
            <gpxtpx:speed>0.057</gpxtpx:speed>
            <gpxtpx:course>352.7</gpxtpx:course>
          </gpxtpx:TrackPointExtension>
        </extensions>
      </trkpt>
      <trkpt lat="37.781021" lon="-122.385460">
        <time>2026-09-21T09:29:54Z</time>
        <extensions>
          <gpxtpx:TrackPointExtension>
            <gpxtpx:speed>0.025</gpxtpx:speed>
            <gpxtpx:course>352.7</gpxtpx:course>
          </gpxtpx:TrackPointExtension>
        </extensions>
      </trkpt>
      <trkpt lat="37.781024" lon="-122.385444">
        <time>2026-09-21T09:34:54Z</time>
        <extensions>
          <gpxtpx:TrackPointExtension>
            <gpxtpx:speed>0.058</gpxtpx:speed>
            <gpxtpx:course>352.7</gpxtpx:course>
          </gpxtpx:TrackPointExtension>
        </extensions>
      </trkpt>
      <trkpt lat="37.781005" lon="-122.385457">
        <time>2026-09-21T09:39:55Z</time>
        <extensions>
          <gpxtpx:TrackPointExtension>
            <gpxtpx:speed>0.042</gpxtpx:speed>
            <gpxtpx:course>352.7</gpxtpx:course>
          </gpxtpx:TrackPointExtension>
        </extensions>
      </trkpt>
      <trkpt lat="37.781006" lon="-122.385460">
        <time>2026-09-21T09:44:55Z</time>
        <extensions>
          <gpxtpx:TrackPointExtension>
            <gpxtpx:speed>0.071</gpxtpx:speed>
            <gpxtpx:course>352.7</gpxtpx:course>
          </gpxtpx:TrackPointExtension>
        </extensions>
      </trkpt>
      <trkpt lat="37.781021" lon="-122.385458">
        <time>2026-09-21T09:49:55Z</time>
        <extensions>
          <gpxtpx:TrackPointExtension>
            <gpxtpx:speed>0.073</gpxtpx:speed>
            <gpxtpx:course>352.7</gpxtpx:course>
          </gpxtpx:TrackPointExtension>
        </extensions>
      </trkpt>
      <trkpt lat="37.781032" lon="-122.385445">
        <time>2026-09-21T09:54:55Z</time>
        <extensions>
          <gpxtpx:TrackPointExtension>
            <gpxtpx:speed>0.016</gpxtpx:speed>
            <gpxtpx:course>352.7</gpxtpx:course>
          </gpxtpx:TrackPointExtension>
        </extensions>
      </trkpt>
      <trkpt lat="37.781017" lon="-122.385453">
        <time>2026-09-21T09:59:55Z</time>
        <extensions>
          <gpxtpx:TrackPointExtension>
            <gpxtpx:speed>0.028</gpxtpx:speed>
            <gpxtpx:course>352.7</gpxtpx:course>
          </gpxtpx:TrackPointExtension>
        </extensions>
      </trkpt>
      <trkpt lat="37.781012" lon="-122.385458">
        <time>2026-09-21T10:04:55Z</time>
        <extensions>
          <gpxtpx:TrackPointExtension>
            <gpxtpx:speed>0.040</gpxtpx:speed>
            <gpxtpx:course>352.7</gpxtpx:course>
          </gpxtpx:TrackPointExtension>
        </extensions>
      </trkpt>
      <trkpt lat="37.781022" lon="-122.385461">
        <time>2026-09-21T10:09:56Z</time>
        <extensions>
          <gpxtpx:TrackPointExtension>
            <gpxtpx:speed>0.041</gpxtpx:speed>
            <gpxtpx:course>352.7</gpxtpx:course>
          </gpxtpx:TrackPointExtension>
        </extensions>
      </trkpt>
      <trkpt lat="37.781031" lon="-122.385468">
        <time>2026-09-21T10:14:55Z</time>
        <extensions>
          <gpxtpx:TrackPointExtension>
            <gpxtpx:speed>0.021</gpxtpx:speed>
            <gpxtpx:course>352.7</gpxtpx:course>
          </gpxtpx:TrackPointExtension>
        </extensions>
      </trkpt>
      <trkpt lat="37.781029" lon="-122.385476">
        <time>2026-09-21T10:19:55Z</time>
        <extensions>
          <gpxtpx:TrackPointExtension>
            <gpxtpx:speed>0.017</gpxtpx:speed>
            <gpxtpx:course>352.7</gpxtpx:course>
          </gpxtpx:TrackPointExtension>
        </extensions>
      </trkpt>
    </trkseg>
  </trk>
</gpx>
